{
  "type": "FeatureCollection",
  "features": [
    {
      "type": "Feature",
      "properties": {
        "norad_id": 66419,
        "name": "HULIANWANG DIGUI 13H",
        "group": "last-30-days",
        "lat": 24.93560726518989,
        "lon": 136.53951925019712,
        "alt_km": 443.04346229266594,
        "timestamp": "2025-12-10T16:57:10.414591+00:00",
        "meta_object_name": "HULIANWANG DIGUI 13H",
        "meta_object_id": "2025-258H",
        "meta_epoch": "2025-12-08T14:58:00.814656",
        "meta_mean_motion": 15.39596954,
        "meta_eccentricity": 0.00012505,
        "meta_inclination": 53.1596,
        "meta_ra_of_asc_node": 125.9585,
        "meta_arg_of_pericenter": 98.9072,
        "meta_mean_anomaly": 261.2074,
        "meta_ephemeris_type": 0,
        "meta_classification_type": "U",
        "meta_norad_cat_id": 66419,
        "meta_element_set_no": 999,
        "meta_rev_at_epoch": 804,
        "meta_bstar": 0.0024249346,
        "meta_mean_motion_dot": 0.00097774,
        "meta_mean_motion_ddot": 0,
        "tle_line1": "1 66419U 25258H   25342.62362054  .00097774  00000+0  24249-2 0  9998",
        "tle_line2": "2 66419  53.1596 125.9585 0001250  98.9072 261.2074 15.39596954  8045"
      },
      "geometry": {
        "type": "Point",
        "coordinates": [
          136.53951925019712,
          24.93560726518989
        ]
      }
    },
    {
      "type": "Feature",
      "properties": {
        "norad_id": 66420,
        "name": "HULIANWANG DIGUI 13J",
        "group": "last-30-days",
        "lat": 12.953196652336626,
        "lon": 79.4196652425861,
        "alt_km": 825.1110230971854,
        "timestamp": "2025-12-10T16:57:10.414602+00:00",
        "meta_object_name": "HULIANWANG DIGUI 13J",
        "meta_object_id": "2025-258J",
        "meta_epoch": "2025-12-09T08:06:16.030656",
        "meta_mean_motion": 14.20271341,
        "meta_eccentricity": 0.00028332,
        "meta_inclination": 50.0013,
        "meta_ra_of_asc_node": 276.2845,
        "meta_arg_of_pericenter": 351.7519,
        "meta_mean_anomaly": 8.3346,
        "meta_ephemeris_type": 0,
        "meta_classification_type": "U",
        "meta_norad_cat_id": 66420,
        "meta_element_set_no": 999,
        "meta_rev_at_epoch": 416,
        "meta_bstar": 0.00032523297,
        "meta_mean_motion_dot": 5.42e-06,
        "meta_mean_motion_ddot": 0,
        "tle_line1": "1 66420U 25258J   25343.33768554  .00000542  00000+0  32523-3 0  9996",
        "tle_line2": "2 66420  50.0013 276.2845 0002833 351.7519   8.3346 14.20271341  4160"
      },
      "geometry": {
        "type": "Point",
        "coordinates": [
          79.4196652425861,
          12.953196652336626
        ]
      }
    },
    {
      "type": "Feature",
      "properties": {
        "norad_id": 66421,
        "name": "CZ-12 R/B",
        "group": "last-30-days",
        "lat": -17.065285333901453,
        "lon": -108.16973232964254,
        "alt_km": 757.3866865104783,
        "timestamp": "2025-12-10T16:57:10.414613+00:00",
        "meta_object_name": "CZ-12 R/B",
        "meta_object_id": "2025-258K",
        "meta_epoch": "2025-12-09T19:26:26.382912",
        "meta_mean_motion": 14.42322931,
        "meta_eccentricity": 0.00645439,
        "meta_inclination": 49.9957,
        "meta_ra_of_asc_node": 270.6602,
        "meta_arg_of_pericenter": 238.862,
        "meta_mean_anomaly": 120.596,
        "meta_ephemeris_type": 0,
        "meta_classification_type": "U",
        "meta_norad_cat_id": 66421,
        "meta_element_set_no": 999,
        "meta_rev_at_epoch": 430,
        "meta_bstar": 0.00014504035,
        "meta_mean_motion_dot": 3.24e-06,
        "meta_mean_motion_ddot": 0,
        "tle_line1": "1 66421U 25258K   25343.81002758  .00000324  00000+0  14504-3 0  9994",
        "tle_line2": "2 66421  49.9957 270.6602 0064543 238.8620 120.5960 14.42322931  4309"
      },
      "geometry": {
        "type": "Point",
        "coordinates": [
          -108.16973232964254,
          -17.065285333901453
        ]
      }
    },
    {
      "type": "Feature",
      "properties": {
        "norad_id": 66422,
        "name": "STARLINK-35617",
        "group": "last-30-days",
        "lat": 4.67118338442118,
        "lon": -125.20392629322122,
        "alt_km": 441.7521295352699,
        "timestamp": "2025-12-10T16:57:10.414626+00:00",
        "meta_object_name": "STARLINK-35617",
        "meta_object_id": "2025-259A",
        "meta_epoch": "2025-12-09T12:12:10.263168",
        "meta_mean_motion": 15.40777762,
        "meta_eccentricity": 0.00010396,
        "meta_inclination": 43.0035,
        "meta_ra_of_asc_node": 66.7321,
        "meta_arg_of_pericenter": 134.0359,
        "meta_mean_anomaly": 226.0583,
        "meta_ephemeris_type": 0,
        "meta_classification_type": "U",
        "meta_norad_cat_id": 66422,
        "meta_element_set_no": 999,
        "meta_rev_at_epoch": 566,
        "meta_bstar": 0.0020546289,
        "meta_mean_motion_dot": 0.00086728,
        "meta_mean_motion_ddot": 0,
        "tle_line1": "1 66422U 25259A   25343.50845212  .00086728  00000+0  20546-2 0  9996",
        "tle_line2": "2 66422  43.0035  66.7321 0001039 134.0359 226.0583 15.40777762  5669"
      },
      "geometry": {
        "type": "Point",
        "coordinates": [
          -125.20392629322122,
          4.67118338442118
        ]
      }
    },
    {
      "type": "Feature",
      "properties": {
        "norad_id": 66423,
        "name": "STARLINK-35618",
        "group": "last-30-days",
        "lat": -3.3537681864319566,
        "lon": -116.59643399152756,
        "alt_km": 443.3043287369137,
        "timestamp": "2025-12-10T16:57:10.414638+00:00",
        "meta_object_name": "STARLINK-35618",
        "meta_object_id": "2025-259B",
        "meta_epoch": "2025-12-10T06:49:10.629984",
        "meta_mean_motion": 15.4076482,
        "meta_eccentricity": 0.00018,
        "meta_inclination": 43.0014,
        "meta_ra_of_asc_node": 62.2322,
        "meta_arg_of_pericenter": 246.4402,
        "meta_mean_anomaly": 113.6265,
        "meta_ephemeris_type": 0,
        "meta_classification_type": "U",
        "meta_norad_cat_id": 66423,
        "meta_element_set_no": 999,
        "meta_rev_at_epoch": 578,
        "meta_bstar": 0.0021116,
        "meta_mean_motion_dot": 0.00089132,
        "meta_mean_motion_ddot": 0,
        "tle_line1": "1 66423U 25259B   25344.28415081  .00089132  00000+0  21116-2 0  9996",
        "tle_line2": "2 66423  43.0014  62.2322 0001800 246.4402 113.6265 15.40764820  5784"
      },
      "geometry": {
        "type": "Point",
        "coordinates": [
          -116.59643399152756,
          -3.3537681864319566
        ]
      }
    },
    {
      "type": "Feature",
      "properties": {
        "norad_id": 66424,
        "name": "STARLINK-35588",
        "group": "last-30-days",
        "lat": -11.751443287780978,
        "lon": -107.33380407394982,
        "alt_km": 444.3351611374392,
        "timestamp": "2025-12-10T16:57:10.414649+00:00",
        "meta_object_name": "STARLINK-35588",
        "meta_object_id": "2025-259C",
        "meta_epoch": "2025-12-10T05:12:35.868384",
        "meta_mean_motion": 15.40752434,
        "meta_eccentricity": 0.0001289,
        "meta_inclination": 43.0001,
        "meta_ra_of_asc_node": 62.5875,
        "meta_arg_of_pericenter": 251.1011,
        "meta_mean_anomaly": 108.9706,
        "meta_ephemeris_type": 0,
        "meta_classification_type": "U",
        "meta_norad_cat_id": 66424,
        "meta_element_set_no": 999,
        "meta_rev_at_epoch": 577,
        "meta_bstar": 0.0019923,
        "meta_mean_motion_dot": 0.00083985,
        "meta_mean_motion_ddot": 0,
        "tle_line1": "1 66424U 25259C   25344.21708181  .00083985  00000+0  19923-2 0  9999",
        "tle_line2": "2 66424  43.0001  62.5875 0001289 251.1011 108.9706 15.40752434  5771"
      },
      "geometry": {
        "type": "Point",
        "coordinates": [
          -107.33380407394982,
          -11.751443287780978
        ]
      }
    },
    {
      "type": "Feature",
      "properties": {
        "norad_id": 66425,
        "name": "STARLINK-35555",
        "group": "last-30-days",
        "lat": -20.08241204709402,
        "lon": -97.16811102572854,
        "alt_km": 445.12681818562214,
        "timestamp": "2025-12-10T16:57:10.414660+00:00",
        "meta_object_name": "STARLINK-35555",
        "meta_object_id": "2025-259D",
        "meta_epoch": "2025-12-09T15:09:11.364192",
        "meta_mean_motion": 15.40774478,
        "meta_eccentricity": 4.23e-05,
        "meta_inclination": 42.9991,
        "meta_ra_of_asc_node": 65.9288,
        "meta_arg_of_pericenter": 227.84,
        "meta_mean_anomaly": 132.2421,
        "meta_ephemeris_type": 0,
        "meta_classification_type": "U",
        "meta_norad_cat_id": 66425,
        "meta_element_set_no": 999,
        "meta_rev_at_epoch": 568,
        "meta_bstar": 0.0015088,
        "meta_mean_motion_dot": 0.00063403,
        "meta_mean_motion_ddot": 0,
        "tle_line1": "1 66425U 25259D   25343.63138153  .00063403  00000+0  15088-2 0  9992",
        "tle_line2": "2 66425  42.9991  65.9288 0000423 227.8400 132.2421 15.40774478  5680"
      },
      "geometry": {
        "type": "Point",
        "coordinates": [
          -97.16811102572854,
          -20.08241204709402
        ]
      }
    }
  ]
}